OBJECT_NAME,OBJECT_ID,EPOCH,MEAN_MOTION,ECCENTRICITY,INCLINATION,RA_OF_ASC_NODE,ARG_OF_PERICENTER,MEAN_ANOMALY,EPHEMERIS_TYPE,CLASSIFICATION_TYPE,NORAD_CAT_ID,ELEMENT_SET_NO,REV_AT_EPOCH,BSTAR,MEAN_MOTION_DOT,MEAN_MOTION_DDOT
SITRO-AIS 6 (CHIRKIN),2023-091AC,2026-06-09T02:43:36.374016,15.25779535,.0012976,97.5071,223.0990,131.4082,228.8273,0,U,57192,999,16305,.35016E-3,.8893E-4,0
SITRO-AIS 8 (ANOKHIN),2023-091AD,2026-06-09T02:51:02.568672,15.31911676,.0011842,97.5060,225.4984,124.5216,235.7145,0,U,57193,999,16321,.40166E-3,.12329E-3,0
SITRO-AIS 7 (FARTUSHNIY),2023-091AE,2026-06-09T02:45:46.501056,15.25470044,.0012796,97.5069,222.9295,132.2572,227.9754,0,U,57194,999,16304,.33765E-3,.8492E-4,0
AVION KALUGA 650,2023-091AF,2026-06-09T04:45:25.369056,15.20266115,.001161,97.5093,219.8074,133.5788,226.6412,0,U,57195,999,16281,.22634E-3,.4851E-4,0
HORS 2,2023-091AG,2026-06-09T04:40:10.212960,15.31686543,.0009522,97.5091,227.1162,111.3966,248.8292,0,U,57196,999,16330,.41123E-3,.12527E-3,0
A-SEANSAT-PG1,2023-091AH,2026-06-09T03:11:05.439840,15.36679774,.0008587,97.5082,229.5438,108.7158,251.5019,0,U,57197,999,16347,.46708E-3,.16685E-3,0
SITRO-AIS 10 (BURDAEV),2023-091AK,2026-06-09T04:25:02.333856,15.38304859,.0007904,97.5083,230.5368,103.8223,256.3902,0,U,57199,999,16353,.47365E-3,.17834E-3,0
SITRO-AIS 9 (SHCHUKIN),2023-091AM,2026-06-09T03:25:43.701024,15.37825123,.000815,97.5081,230.2309,103.9347,256.2804,0,U,57201,999,16351,.48657E-3,.18041E-3,0
UTMN 2 (RS27S),2023-091AP,2026-06-09T03:46:31.895040,15.31853047,.0009485,97.5090,227.2681,107.5899,252.6379,0,U,57203,999,16331,.37057E-3,.11337E-3,0
SITRO-AIS 12 (SMIRENNIY),2023-091AQ,2026-06-09T03:14:24.501120,15.38114482,.0007745,97.5093,230.6848,99.0244,261.1877,0,U,57204,999,16353,.46388E-3,.17355E-3,0
SITRO-AIS 11 (SHEFFER),2023-091AU,2026-06-09T03:36:54.653184,15.38532764,.0007644,97.5092,230.9424,98.9589,261.2521,0,U,57208,999,16355,.48294E-3,.18321E-3,0
H2SAT (HEINRICH HERTZ),2023-093A,2026-06-09T04:02:38.566752,1.00272250,.0001571,0.0531,112.6514,24.2918,181.9555,0,U,57213,999,1083,0,.19E-6,0
KUZGTU 1 (RS47S),2023-091AV,2026-06-09T02:51:50.753088,15.29674624,.0012338,97.5067,224.5181,122.8475,237.3955,0,U,57217,999,16314,.382E-3,.10934E-3,0
QIANKUN-1,2023-103B,2026-06-09T01:55:44.925312,16.07385420,.002699,96.1555,205.4874,148.8875,211.4016,0,U,57422,999,16599,.20175E-4,.16171E-3,.17723E-5
FENGYUN 3F,2023-111A,2026-06-09T03:39:41.857920,14.19937754,.0001579,98.6841,230.3107,98.8052,261.3303,0,U,57490,999,14772,.42298E-4,.46E-6,0
HJ-2F,2023-116A,2026-06-09T04:00:48.451680,15.22204731,.0010411,97.3847,165.5262,75.3793,284.8597,0,U,57519,999,15753,.30045E-3,.6843E-4,0
XRISM,2023-137A,2026-06-09T00:10:14.203776,15.12393787,.0007924,31.0027,52.5857,242.6869,117.2963,0,U,57800,999,15162,.23876E-3,.4348E-4,0
METEOR-M2 4,2024-039A,2026-06-09T03:56:47.482080,14.22428777,.0006809,98.7007,119.5635,183.9003,176.2123,0,U,59051,999,11812,.29139E-4,.21E-6,0
GRBBETA,2024-128C,2026-06-08T17:23:39.175008,15.06584103,.0041799,61.9897,245.9555,132.8784,227.5832,0,U,60237,999,10499,.29272E-3,.4223E-4,0
TRANSPORTER-11 OBJECT A,2024-149A,2026-06-09T04:32:34.105632,15.32776647,.000208,97.3727,240.1449,228.2755,131.8309,0,U,60468,999,10083,.24389E-3,.7642E-4,0
WARATAH SEED-1,2024-149B,2026-06-08T21:38:36.779712,15.35738401,.000078,97.3687,240.4702,204.7337,155.3869,0,U,60469,999,10084,.37807E-3,.13069E-3,0
PHISAT 2,2024-149C,2026-06-09T04:54:03.718080,15.30936228,.0000273,97.3754,239.4656,188.1821,171.9416,0,U,60470,999,10077,.19898E-3,.5871E-4,0
LEMUR-2-TOMATOKECHUP,2024-149D,2026-06-08T18:26:21.087168,15.35857069,.000061,97.3794,241.7949,200.2365,159.8855,0,U,60471,999,10087,.33401E-3,.11578E-3,0
CONNECTA IOT-1,2024-149E,2026-06-08T22:50:11.087808,15.23476768,.0001008,97.3756,236.3823,5.0067,355.1180,0,U,60472,999,10054,.15412E-3,.3605E-4,0
LOPEN,2024-149F,2026-06-09T04:49:21.674784,15.39457731,.0000071,97.3773,243.5077,175.5026,184.6221,0,U,60473,999,10103,.34019E-3,.13257E-3,0
ROCK,2024-149G,2026-06-09T04:29:59.581824,15.39453605,.0000362,97.3771,243.5104,230.4603,129.6611,0,U,60474,999,10103,.34478E-3,.13436E-3,0
CONNECTA IOT-3,2024-149H,2026-06-09T02:30:13.236768,15.23489837,.0001463,97.3731,236.2881,315.8124,44.2996,0,U,60475,999,10057,.15119E-3,.3537E-4,0
QUBE,2024-149J,2026-06-08T18:21:05.231232,15.46822685,.0001255,97.3772,246.0385,219.9440,140.1717,0,U,60476,999,10116,.4935E-3,.24715E-3,0
WREN-1,2024-149L,2026-06-08T18:14:09.857184,15.41229358,.0002889,97.3763,243.7861,291.1555,68.9383,0,U,60478,999,10102,.51355E-3,.21286E-3,0
