SITRO-AIS 6 (CHIRKIN)   
1 57192U 23091AC  26160.11361544  .00008893  00000+0  35016-3 0  9994
2 57192  97.5071 223.0990 0012976 131.4082 228.8273 15.25779535163050
SITRO-AIS 8 (ANOKHIN)   
1 57193U 23091AD  26160.11877973  .00012329  00000+0  40166-3 0  9994
2 57193  97.5060 225.4984 0011842 124.5216 235.7145 15.31911676163215
SITRO-AIS 7 (FARTUSHNIY)
1 57194U 23091AE  26160.11512154  .00008492  00000+0  33765-3 0  9995
2 57194  97.5069 222.9295 0012796 132.2572 227.9754 15.25470044163044
AVION KALUGA 650        
1 57195U 23091AF  26160.19821029  .00004851  00000+0  22634-3 0  9996
2 57195  97.5093 219.8074 0011610 133.5788 226.6412 15.20266115162817
HORS 2                  
1 57196U 23091AG  26160.19456265  .00012527  00000+0  41123-3 0  9996
2 57196  97.5091 227.1162 0009522 111.3966 248.8292 15.31686543163307
A-SEANSAT-PG1           
1 57197U 23091AH  26160.13270185  .00016685  00000+0  46708-3 0  9999
2 57197  97.5082 229.5438 0008587 108.7158 251.5019 15.36679774163472
SITRO-AIS 10 (BURDAEV)  
1 57199U 23091AK  26160.18405479  .00017834  00000+0  47365-3 0  9999
2 57199  97.5083 230.5368 0007904 103.8223 256.3902 15.38304859163532
SITRO-AIS 9 (SHCHUKIN)  
1 57201U 23091AM  26160.14286691  .00018041  00000+0  48657-3 0  9998
2 57201  97.5081 230.2309 0008150 103.9347 256.2804 15.37825123163517
UTMN 2 (RS27S)          
1 57203U 23091AP  26160.15731360  .00011337  00000+0  37057-3 0  9992
2 57203  97.5090 227.2681 0009485 107.5899 252.6379 15.31853047163317
SITRO-AIS 12 (SMIRENNIY)
1 57204U 23091AQ  26160.13500580  .00017355  00000+0  46388-3 0  9992
2 57204  97.5093 230.6848 0007745  99.0244 261.1877 15.38114482163532
SITRO-AIS 11 (SHEFFER)  
1 57208U 23091AU  26160.15063256  .00018321  00000+0  48294-3 0  9994
2 57208  97.5092 230.9424 0007644  98.9589 261.2521 15.38532764163552
H2SAT (HEINRICH HERTZ)  
1 57213U 23093A   26160.16850193  .00000019  00000+0  00000+0 0  9991
2 57213   0.0531 112.6514 0001571  24.2918 181.9555  1.00272250 10834
KUZGTU 1 (RS47S)        
1 57217U 23091AV  26160.11933742  .00010934  00000+0  38200-3 0  9994
2 57217  97.5067 224.5181 0012338 122.8475 237.3955 15.29674624163142
QIANKUN-1               
1 57422U 23103B   26160.08038108  .00016171  17723-5  20175-4 0  9992
2 57422  96.1555 205.4874 0026990 148.8875 211.4016 16.07385420165991
FENGYUN 3F              
1 57490U 23111A   26160.15256780  .00000046  00000+0  42298-4 0  9990
2 57490  98.6841 230.3107 0001579  98.8052 261.3303 14.19937754147722
HJ-2F                   
1 57519U 23116A   26160.16722745  .00006843  00000+0  30045-3 0  9994
2 57519  97.3847 165.5262 0010411  75.3793 284.8597 15.22204731157536
XRISM                   
1 57800U 23137A   26160.00710884  .00004348  00000+0  23876-3 0  9996
2 57800  31.0027  52.5857 0007924 242.6869 117.2963 15.12393787151626
METEOR-M2 4             
1 59051U 24039A   26160.16443845  .00000021  00000+0  29139-4 0  9998
2 59051  98.7007 119.5635 0006809 183.9003 176.2123 14.22428777118129
GRBBETA                 
1 60237U 24128C   26159.72475897  .00004223  00000+0  29272-3 0  9992
2 60237  61.9897 245.9555 0041799 132.8784 227.5832 15.06584103104993
TRANSPORTER-11 OBJECT A 
1 60468U 24149A   26160.18928363  .00007642  00000+0  24389-3 0  9996
2 60468  97.3727 240.1449 0002080 228.2755 131.8309 15.32776647100831
WARATAH SEED-1          
1 60469U 24149B   26159.90181458  .00013069  00000+0  37807-3 0  9990
2 60469  97.3687 240.4702 0000780 204.7337 155.3869 15.35738401100844
PHISAT 2                
1 60470U 24149C   26160.20420970  .00005871  00000+0  19898-3 0  9994
2 60470  97.3754 239.4656 0000273 188.1821 171.9416 15.30936228100773
LEMUR-2-TOMATOKECHUP    
1 60471U 24149D   26159.76829962  .00011578  00000+0  33401-3 0  9995
2 60471  97.3794 241.7949 0000610 200.2365 159.8855 15.35857069100876
CONNECTA IOT-1          
1 60472U 24149E   26159.95151722  .00003605  00000+0  15412-3 0  9993
2 60472  97.3756 236.3823 0001008   5.0067 355.1180 15.23476768100544
LOPEN                   
1 60473U 24149F   26160.20094531  .00013257  00000+0  34019-3 0  9996
2 60473  97.3773 243.5077 0000071 175.5026 184.6221 15.39457731101034
ROCK                    
1 60474U 24149G   26160.18749516  .00013436  00000+0  34478-3 0  9992
2 60474  97.3771 243.5104 0000362 230.4603 129.6611 15.39453605101037
CONNECTA IOT-3          
1 60475U 24149H   26160.10431987  .00003537  00000+0  15119-3 0  9997
2 60475  97.3731 236.2881 0001463 315.8124  44.2996 15.23489837100579
QUBE                    
1 60476U 24149J   26159.76464388  .00024715  00000+0  49350-3 0  9994
2 60476  97.3772 246.0385 0001255 219.9440 140.1717 15.46822685101167
WREN-1                  
1 60478U 24149L   26159.75983631  .00021286  00000+0  51355-3 0  9990
2 60478  97.3763 243.7861 0002889 291.1555  68.9383 15.41229358101029
